NAVSTAR 85 (USA 581)    
1 67588U 26017A   26055.51952652 -.00000003  00000+0  00000+0 0  9995
2 67588  55.0130  93.2756 0001206  28.8360 331.2338  2.00560949429359
STARLINK-36641          
1 67589U 26018A   26058.13849912  .00208802  00000+0  13676-2 0  9994
2 67589  97.2834 123.3762 0001818 316.6053  43.5069 15.75176228  5642
STARLINK-36376          
1 67590U 26018B   26058.12050144  .00288627  00000+0  18608-2 0  9999
2 67590  97.2849 123.4063 0001543  99.9456 260.1983 15.75319474  5642
STARLINK-36391          
1 67591U 26018C   26058.16668981 -.00201565  00000+0 -13769-2 0  9999
2 67591  97.2844 123.5317 0001791  71.0431  14.7490 15.75283201  5701
STARLINK-36603          
1 67592U 26018D   26058.11626329  .00362484  00000+0  23131-2 0  9995
2 67592  97.2843 123.4083 0000841  68.8226 291.3129 15.75351476  5646
STARLINK-36634          
1 67593U 26018E   26058.17203248  .00262687  00000+0  17114-2 0  9991
2 67593  97.2844 123.4856 0002589  13.5785 346.5549 15.75148707  5655
STARLINK-36638          
1 67594U 26018F   26058.16668981 -.01607441  00000+0 -11620-1 0  9999
2 67594  97.2844 123.5406 0001707  65.1390  41.7515 15.76587386  5652
STARLINK-36628          
1 67595U 26018G   26058.12614654  .00368411  00000+0  23495-2 0  9996
2 67595  97.2856 123.3963 0001336 121.0237 239.1160 15.75350713  5641
STARLINK-36629          
1 67596U 26018H   26058.13391087  .00322663  00000+0  20705-2 0  9990
2 67596  97.2826 123.3824 0001676 109.4132 250.7315 15.75334727  5644
STARLINK-36384          
1 67597U 26018J   26058.15756332  .00240676  00000+0  15694-2 0  9995
2 67597  97.2823 123.5026 0004203 107.8585 252.3139 15.75184478  5650
STARLINK-36358          
1 67598U 26018K   26058.12791342  .00338416  00000+0  21597-2 0  9992
2 67598  97.2840 123.3915 0001610 334.0434  26.0751 15.75417528  5641
STARLINK-36582          
1 67599U 26018L   26058.17591373  .00212192  00000+0  13888-2 0  9996
2 67599  97.2820 123.4791 0002972 345.1189  14.9988 15.75181105  5709
